CCSDS_OMM_VERS = 2.0
CREATION_DATE  = 
ORIGINATOR     = 

OBJECT_NAME    = STARLINK-36219
OBJECT_ID      = 2025-299Z
CENTER_NAME    = EARTH
REF_FRAME      = TEME
TIME_SYSTEM    = UTC
MEAN_ELEMENT_THEORY = SGP/SGP4

EPOCH          = 2025-12-25T20:00:01.999008
MEAN_MOTION    = 15.81738277
ECCENTRICITY   = .0001646
INCLINATION    = 42.9968
RA_OF_ASC_NODE = 236.3292
ARG_OF_PERICENTER = 266.5921
MEAN_ANOMALY   = 72.1370

EPHEMERIS_TYPE = 0
CLASSIFICATION_TYPE = U
NORAD_CAT_ID   = 67125
ELEMENT_SET_NO = 999
REV_AT_EPOCH   = 291
BSTAR          = -.99475E-2
MEAN_MOTION_DOT = -.1817094E-1
MEAN_MOTION_DDOT = 0

CCSDS_OMM_VERS = 2.0
CREATION_DATE  = 
ORIGINATOR     = 

OBJECT_NAME    = STARLINK-36223
OBJECT_ID      = 2025-299AA
CENTER_NAME    = EARTH
REF_FRAME      = TEME
TIME_SYSTEM    = UTC
MEAN_ELEMENT_THEORY = SGP/SGP4

EPOCH          = 2025-12-25T20:00:01.999008
MEAN_MOTION    = 15.81741256
ECCENTRICITY   = .000172
INCLINATION    = 42.9970
RA_OF_ASC_NODE = 236.3247
ARG_OF_PERICENTER = 263.7933
MEAN_ANOMALY   = 76.7936

EPHEMERIS_TYPE = 0
CLASSIFICATION_TYPE = U
NORAD_CAT_ID   = 67126
ELEMENT_SET_NO = 999
REV_AT_EPOCH   = 291
BSTAR          = -.9953E-2
MEAN_MOTION_DOT = -.1818271E-1
MEAN_MOTION_DDOT = 0

CCSDS_OMM_VERS = 2.0
CREATION_DATE  = 
ORIGINATOR     = 

OBJECT_NAME    = STARLINK-36164
OBJECT_ID      = 2025-299AB
CENTER_NAME    = EARTH
REF_FRAME      = TEME
TIME_SYSTEM    = UTC
MEAN_ELEMENT_THEORY = SGP/SGP4

EPOCH          = 2025-12-25T20:00:01.999008
MEAN_MOTION    = 15.81751332
ECCENTRICITY   = .0001708
INCLINATION    = 42.9970
RA_OF_ASC_NODE = 236.3204
ARG_OF_PERICENTER = 261.7776
MEAN_ANOMALY   = 80.5211

EPHEMERIS_TYPE = 0
CLASSIFICATION_TYPE = U
NORAD_CAT_ID   = 67127
ELEMENT_SET_NO = 999
REV_AT_EPOCH   = 291
BSTAR          = -.99901E-2
MEAN_MOTION_DOT = -.1824954E-1
MEAN_MOTION_DDOT = 0

CCSDS_OMM_VERS = 2.0
CREATION_DATE  = 
ORIGINATOR     = 

OBJECT_NAME    = STARLINK-35685
OBJECT_ID      = 2025-299AC
CENTER_NAME    = EARTH
REF_FRAME      = TEME
TIME_SYSTEM    = UTC
MEAN_ELEMENT_THEORY = SGP/SGP4

EPOCH          = 2025-12-25T20:00:01.999008
MEAN_MOTION    = 15.81721932
ECCENTRICITY   = .0001689
INCLINATION    = 42.9967
RA_OF_ASC_NODE = 236.3084
ARG_OF_PERICENTER = 264.6264
MEAN_ANOMALY   = 82.2997

EPHEMERIS_TYPE = 0
CLASSIFICATION_TYPE = U
NORAD_CAT_ID   = 67128
ELEMENT_SET_NO = 999
REV_AT_EPOCH   = 291
BSTAR          = -.99724E-2
MEAN_MOTION_DOT = -.1819887E-1
MEAN_MOTION_DDOT = 0

CCSDS_OMM_VERS = 2.0
CREATION_DATE  = 
ORIGINATOR     = 

OBJECT_NAME    = STARLINK-36214
OBJECT_ID      = 2025-299AD
CENTER_NAME    = EARTH
REF_FRAME      = TEME
TIME_SYSTEM    = UTC
MEAN_ELEMENT_THEORY = SGP/SGP4

EPOCH          = 2025-12-25T20:00:01.999008
MEAN_MOTION    = 15.81748936
ECCENTRICITY   = .0001701
INCLINATION    = 42.9969
RA_OF_ASC_NODE = 236.3152
ARG_OF_PERICENTER = 263.7346
MEAN_ANOMALY   = 80.5191

EPHEMERIS_TYPE = 0
CLASSIFICATION_TYPE = U
NORAD_CAT_ID   = 67129
ELEMENT_SET_NO = 999
REV_AT_EPOCH   = 291
BSTAR          = -.99807E-2
MEAN_MOTION_DOT = -.1823276E-1
MEAN_MOTION_DDOT = 0

CCSDS_OMM_VERS = 2.0
CREATION_DATE  = 
ORIGINATOR     = 

OBJECT_NAME    = STARLINK-36194
OBJECT_ID      = 2025-299AE
CENTER_NAME    = EARTH
REF_FRAME      = TEME
TIME_SYSTEM    = UTC
MEAN_ELEMENT_THEORY = SGP/SGP4

EPOCH          = 2025-12-25T20:00:01.999008
MEAN_MOTION    = 15.81629250
ECCENTRICITY   = .0001656
INCLINATION    = 42.9968
RA_OF_ASC_NODE = 236.2986
ARG_OF_PERICENTER = 267.9861
MEAN_ANOMALY   = 83.4895

EPHEMERIS_TYPE = 0
CLASSIFICATION_TYPE = U
NORAD_CAT_ID   = 67130
ELEMENT_SET_NO = 999
REV_AT_EPOCH   = 291
BSTAR          = -.10007E-1
MEAN_MOTION_DOT = -.1818468E-1
MEAN_MOTION_DDOT = 0

CCSDS_OMM_VERS = 2.0
CREATION_DATE  = 
ORIGINATOR     = 

OBJECT_NAME    = ZIYUAN 3-04 (ZY 3-04)
OBJECT_ID      = 2025-300A
CENTER_NAME    = EARTH
REF_FRAME      = TEME
TIME_SYSTEM    = UTC
MEAN_ELEMENT_THEORY = SGP/SGP4

EPOCH          = 2025-12-21T18:22:34.187808
MEAN_MOTION    = 15.21179479
ECCENTRICITY   = .00027623
INCLINATION    = 97.4922
RA_OF_ASC_NODE = 69.8294
ARG_OF_PERICENTER = 167.6924
MEAN_ANOMALY   = 192.4380

EPHEMERIS_TYPE = 0
CLASSIFICATION_TYPE = U
NORAD_CAT_ID   = 67131
ELEMENT_SET_NO = 999
REV_AT_EPOCH   = 86
BSTAR          = .65769783E-4
MEAN_MOTION_DOT = .1396E-4
MEAN_MOTION_DDOT = 0

CCSDS_OMM_VERS = 2.0
CREATION_DATE  = 
ORIGINATOR     = 

OBJECT_NAME    = CZ-4B R/B
OBJECT_ID      = 2025-300B
CENTER_NAME    = EARTH
REF_FRAME      = TEME
TIME_SYSTEM    = UTC
MEAN_ELEMENT_THEORY = SGP/SGP4

EPOCH          = 2025-12-18T16:13:04.609056
MEAN_MOTION    = 15.63831828
ECCENTRICITY   = .01741973
INCLINATION    = 97.5563
RA_OF_ASC_NODE = 66.9660
ARG_OF_PERICENTER = 9.3582
MEAN_ANOMALY   = 351.0851

EPHEMERIS_TYPE = 0
CLASSIFICATION_TYPE = U
NORAD_CAT_ID   = 67132
ELEMENT_SET_NO = 999
REV_AT_EPOCH   = 40
BSTAR          = .19566238E-3
MEAN_MOTION_DOT = .40543E-3
MEAN_MOTION_DDOT = .2652968E-5

CCSDS_OMM_VERS = 2.0
CREATION_DATE  = 
ORIGINATOR     = 

OBJECT_NAME    = KUIPER-00144
OBJECT_ID      = 2025-301A
CENTER_NAME    = EARTH
REF_FRAME      = TEME
TIME_SYSTEM    = UTC
MEAN_ELEMENT_THEORY = SGP/SGP4

EPOCH          = 2025-12-25T20:00:01.999008
MEAN_MOTION    = 15.35436166
ECCENTRICITY   = .000611
INCLINATION    = 51.8703
RA_OF_ASC_NODE = 61.9935
ARG_OF_PERICENTER = 121.1367
MEAN_ANOMALY   = 128.2584

EPHEMERIS_TYPE = 0
CLASSIFICATION_TYPE = U
NORAD_CAT_ID   = 67133
ELEMENT_SET_NO = 999
REV_AT_EPOCH   = 178
BSTAR          = -.32405E-3
MEAN_MOTION_DOT = -.11703E-3
MEAN_MOTION_DDOT = 0

CCSDS_OMM_VERS = 2.0
CREATION_DATE  = 
ORIGINATOR     = 

OBJECT_NAME    = KUIPER-00164
OBJECT_ID      = 2025-301B
CENTER_NAME    = EARTH
REF_FRAME      = TEME
TIME_SYSTEM    = UTC
MEAN_ELEMENT_THEORY = SGP/SGP4

EPOCH          = 2025-12-25T20:00:01.999008
MEAN_MOTION    = 15.36135784
ECCENTRICITY   = .0003241
INCLINATION    = 51.8724
RA_OF_ASC_NODE = 61.9404
ARG_OF_PERICENTER = 101.3443
MEAN_ANOMALY   = 173.1685

EPHEMERIS_TYPE = 0
CLASSIFICATION_TYPE = U
NORAD_CAT_ID   = 67134
ELEMENT_SET_NO = 999
REV_AT_EPOCH   = 255
BSTAR          = -.20924E-3
MEAN_MOTION_DOT = -.786E-4
MEAN_MOTION_DDOT = 0

CCSDS_OMM_VERS = 2.0
CREATION_DATE  = 
ORIGINATOR     = 

OBJECT_NAME    = KUIPER-00175
OBJECT_ID      = 2025-301C
CENTER_NAME    = EARTH
REF_FRAME      = TEME
TIME_SYSTEM    = UTC
MEAN_ELEMENT_THEORY = SGP/SGP4

EPOCH          = 2025-12-25T20:00:01.999008
MEAN_MOTION    = 15.36590122
ECCENTRICITY   = .0002269
INCLINATION    = 51.8742
RA_OF_ASC_NODE = 61.8992
ARG_OF_PERICENTER = 57.0892
MEAN_ANOMALY   = 234.3334

EPHEMERIS_TYPE = 0
CLASSIFICATION_TYPE = U
NORAD_CAT_ID   = 67135
ELEMENT_SET_NO = 999
REV_AT_EPOCH   = 244
BSTAR          = -.16427E-3
MEAN_MOTION_DOT = -.6342E-4
MEAN_MOTION_DDOT = 0

CCSDS_OMM_VERS = 2.0
CREATION_DATE  = 
ORIGINATOR     = 

OBJECT_NAME    = KUIPER-00179
OBJECT_ID      = 2025-301D
CENTER_NAME    = EARTH
REF_FRAME      = TEME
TIME_SYSTEM    = UTC
MEAN_ELEMENT_THEORY = SGP/SGP4

EPOCH          = 2025-12-25T20:00:01.999008
MEAN_MOTION    = 15.36253901
ECCENTRICITY   = .0003024
INCLINATION    = 51.8738
RA_OF_ASC_NODE = 61.9228
ARG_OF_PERICENTER = 80.1312
MEAN_ANOMALY   = 201.0994

EPHEMERIS_TYPE = 0
CLASSIFICATION_TYPE = U
NORAD_CAT_ID   = 67136
ELEMENT_SET_NO = 999
REV_AT_EPOCH   = 255
BSTAR          = -.17145E-3
MEAN_MOTION_DOT = -.6535E-4
MEAN_MOTION_DDOT = 0

CCSDS_OMM_VERS = 2.0
CREATION_DATE  = 
ORIGINATOR     = 

OBJECT_NAME    = KUIPER-00181
OBJECT_ID      = 2025-301E
CENTER_NAME    = EARTH
REF_FRAME      = TEME
TIME_SYSTEM    = UTC
MEAN_ELEMENT_THEORY = SGP/SGP4

EPOCH          = 2025-12-25T20:00:01.999008
MEAN_MOTION    = 15.34426085
ECCENTRICITY   = .0009923
INCLINATION    = 51.8638
RA_OF_ASC_NODE = 62.0667
ARG_OF_PERICENTER = 142.9639
MEAN_ANOMALY   = 71.0677

EPHEMERIS_TYPE = 0
CLASSIFICATION_TYPE = U
NORAD_CAT_ID   = 67137
ELEMENT_SET_NO = 999
REV_AT_EPOCH   = 253
BSTAR          = -.35443E-3
MEAN_MOTION_DOT = -.1238E-3
MEAN_MOTION_DDOT = 0

CCSDS_OMM_VERS = 2.0
CREATION_DATE  = 
ORIGINATOR     = 

OBJECT_NAME    = KUIPER-00183
OBJECT_ID      = 2025-301F
CENTER_NAME    = EARTH
REF_FRAME      = TEME
TIME_SYSTEM    = UTC
MEAN_ELEMENT_THEORY = SGP/SGP4

EPOCH          = 2025-12-25T20:00:01.999008
MEAN_MOTION    = 15.34079684
ECCENTRICITY   = .0011146
INCLINATION    = 51.8611
RA_OF_ASC_NODE = 62.0896
ARG_OF_PERICENTER = 147.7361
MEAN_ANOMALY   = 54.7616

EPHEMERIS_TYPE = 0
CLASSIFICATION_TYPE = U
NORAD_CAT_ID   = 67138
ELEMENT_SET_NO = 999
REV_AT_EPOCH   = 254
BSTAR          = -.37347E-3
MEAN_MOTION_DOT = -.12891E-3
MEAN_MOTION_DDOT = 0

CCSDS_OMM_VERS = 2.0
CREATION_DATE  = 
ORIGINATOR     = 

OBJECT_NAME    = KUIPER-00184
OBJECT_ID      = 2025-301G
CENTER_NAME    = EARTH
REF_FRAME      = TEME
TIME_SYSTEM    = UTC
MEAN_ELEMENT_THEORY = SGP/SGP4

EPOCH          = 2025-12-25T20:00:01.999008
MEAN_MOTION    = 15.34428079
ECCENTRICITY   = .000876
INCLINATION    = 51.8625
RA_OF_ASC_NODE = 62.0576
ARG_OF_PERICENTER = 142.3149
MEAN_ANOMALY   = 76.1972

EPHEMERIS_TYPE = 0
CLASSIFICATION_TYPE = U
NORAD_CAT_ID   = 67139
ELEMENT_SET_NO = 999
REV_AT_EPOCH   = 265
BSTAR          = -.34257E-3
MEAN_MOTION_DOT = -.11975E-3
MEAN_MOTION_DDOT = 0

